{"type":"FeatureCollection","features":[{"type":"Feature","geometry":{"type":"LineString","coordinates":[[-8.633408,42.102229],[-8.633532,42.102305],[-8.633583,42.102406],[-8.6336,42.102687],[-8.633696,42.103024],[-8.633984,42.103297],[-8.634244,42.103712],[-8.634734,42.104109],[-8.6348,42.104219],[-8.634756,42.104698],[-8.635134,42.104926],[-8.635586,42.105324],[-8.636241,42.10566],[-8.636712,42.105802],[-8.637764,42.10595],[-8.637826,42.106096],[-8.637868,42.106626],[-8.637956,42.106808],[-8.638374,42.10687],[-8.638479,42.106938],[-8.638716,42.107353],[-8.639485,42.107915],[-8.639979,42.108348],[-8.640183,42.108766],[-8.640937,42.109473],[-8.640957,42.109553],[-8.64088,42.109829],[-8.640961,42.11045],[-8.640741,42.111153],[-8.640737,42.11198],[-8.640535,42.112589],[-8.640503,42.113121],[-8.640599,42.113479],[-8.640869,42.113977],[-8.641194,42.114414],[-8.641586,42.114793],[-8.641746,42.115427],[-8.642368,42.116552],[-8.642561,42.117068],[-8.64263,42.117451],[-8.642633,42.117879],[-8.642277,42.119601],[-8.642251,42.120037],[-8.6423,42.120366],[-8.642515,42.121064],[-8.642722,42.121384],[-8.643214,42.121828],[-8.644164,42.122544],[-8.644546,42.122951],[-8.645058,42.12403],[-8.645147,42.124341],[-8.645151,42.124552],[-8.64508,42.124759],[-8.644933,42.124914],[-8.644305,42.125241],[-8.643729,42.125413],[-8.643005,42.125292],[-8.642615,42.125324],[-8.641876,42.125605],[-8.64163,42.12577],[-8.641484,42.125954],[-8.641463,42.126211],[-8.641569,42.126628],[-8.641745,42.126997],[-8.642213,42.127706],[-8.642375,42.128037],[-8.64261,42.128757],[-8.642714,42.129398],[-8.642681,42.12962],[-8.642389,42.130133],[-8.642018,42.131404],[-8.641873,42.131688],[-8.641637,42.131961],[-8.641277,42.132224],[-8.640536,42.132606],[-8.634859,42.135007],[-8.634264,42.135289],[-8.634025,42.135485],[-8.633884,42.135847],[-8.633524,42.137538],[-8.632923,42.138979],[-8.632502,42.140231],[-8.630415,42.144178],[-8.630402,42.144326],[-8.630224,42.144562],[-8.630121,42.144531],[-8.630079,42.144359],[-8.629761,42.144309],[-8.629037,42.144332],[-8.627459,42.144513],[-8.625057,42.144637],[-8.6248,42.144549],[-8.624233,42.144487],[-8.624105,42.144546],[-8.62332,42.145719],[-8.623186,42.145803],[-8.622841,42.145903],[-8.622465,42.146105],[-8.622341,42.148328],[-8.622258,42.148756],[-8.62055,42.154104],[-8.620544,42.154224],[-8.620851,42.154774],[-8.620979,42.155132],[-8.621012,42.155522],[-8.620978,42.155773],[-8.620256,42.157262],[-8.620271,42.157449],[-8.620006,42.157479],[-8.620128,42.158352],[-8.620223,42.158642],[-8.620217,42.159175],[-8.620524,42.159334],[-8.620515,42.159412],[-8.620703,42.159498],[-8.621051,42.159556],[-8.621059,42.161511],[-8.6211,42.161666],[-8.621414,42.16222],[-8.621451,42.162528],[-8.621526,42.162678],[-8.621607,42.162706],[-8.62168,42.162951],[-8.621593,42.16299],[-8.621496,42.162929],[-8.621402,42.163018],[-8.620753,42.165557],[-8.620257,42.165448],[-8.620057,42.165443],[-8.620052,42.165596],[-8.620118,42.165812],[-8.620394,42.166222],[-8.620411,42.166323],[-8.619788,42.168594],[-8.619735,42.168581],[-8.619678,42.168471],[-8.619572,42.167837],[-8.619484,42.167699],[-8.619311,42.167607],[-8.61901,42.167635],[-8.618971,42.167664],[-8.618951,42.167873],[-8.618815,42.168125],[-8.618519,42.168267],[-8.618184,42.168533],[-8.617947,42.168599],[-8.617857,42.168575],[-8.617073,42.167991],[-8.616959,42.167771],[-8.616186,42.167449],[-8.615815,42.167338],[-8.615655,42.167224],[-8.615572,42.167204],[-8.614833,42.167635],[-8.614762,42.167735],[-8.614818,42.167907],[-8.614921,42.167979],[-8.61662,42.168809],[-8.617242,42.169159],[-8.618524,42.16953],[-8.618665,42.169583],[-8.618824,42.169724],[-8.61877,42.170144],[-8.618272,42.171241],[-8.618023,42.172074],[-8.617356,42.172999],[-8.617252,42.173107],[-8.616927,42.173277],[-8.616778,42.173435],[-8.616705,42.173566],[-8.616673,42.173802],[-8.615961,42.174908],[-8.61574,42.175452],[-8.616727,42.175772],[-8.616877,42.175741],[-8.617009,42.17578],[-8.617234,42.175907],[-8.617805,42.176096],[-8.618296,42.176379],[-8.6195,42.176108],[-8.620085,42.176123],[-8.621051,42.176344],[-8.622355,42.176491],[-8.622647,42.176646],[-8.622805,42.176898],[-8.62252,42.177102],[-8.622399,42.177359],[-8.622205,42.177574],[-8.621898,42.177759],[-8.621211,42.178071],[-8.620809,42.178389],[-8.620563,42.178679],[-8.620548,42.178963],[-8.620708,42.179331],[-8.62072,42.179499],[-8.620477,42.180059],[-8.620514,42.180503],[-8.620409,42.180995],[-8.620354,42.181069],[-8.620093,42.181226],[-8.619834,42.181573],[-8.619716,42.18195],[-8.619256,42.182141],[-8.619209,42.182208],[-8.619181,42.182498],[-8.619092,42.182695],[-8.618841,42.182932],[-8.618424,42.183191],[-8.618262,42.183393],[-8.618344,42.183827],[-8.618447,42.18394],[-8.618248,42.184238],[-8.618163,42.184542],[-8.617997,42.184726],[-8.617627,42.185],[-8.616288,42.185754],[-8.615753,42.186264],[-8.615463,42.186359],[-8.615306,42.186479],[-8.615189,42.186672],[-8.615181,42.187122],[-8.614733,42.187826],[-8.614817,42.188208],[-8.614667,42.1885],[-8.614296,42.188906],[-8.613528,42.189322],[-8.613267,42.189536],[-8.613016,42.189835],[-8.612687,42.190438],[-8.612604,42.190799],[-8.612611,42.191188],[-8.612517,42.191423],[-8.612412,42.191602],[-8.612082,42.191978],[-8.61168,42.192768],[-8.611509,42.192939],[-8.610813,42.193319],[-8.610618,42.193966],[-8.610282,42.194707],[-8.610006,42.195148],[-8.609694,42.196435],[-8.609496,42.196976],[-8.608616,42.198022],[-8.608574,42.198219],[-8.608717,42.198467],[-8.608886,42.199143],[-8.608781,42.199595],[-8.608936,42.199885],[-8.608914,42.199991],[-8.608672,42.20042],[-8.608756,42.200899],[-8.60791,42.201744],[-8.60754,42.201949],[-8.607389,42.202089],[-8.606708,42.202448],[-8.606085,42.203069],[-8.605735,42.203866],[-8.605968,42.204143],[-8.606297,42.204804],[-8.606262,42.205479],[-8.606356,42.205977],[-8.607119,42.207009],[-8.607733,42.207542],[-8.608415,42.208401],[-8.608751,42.208684],[-8.60904,42.209163],[-8.609033,42.210115],[-8.609174,42.210873],[-8.609373,42.211623],[-8.609481,42.212496],[-8.60935,42.213735],[-8.60926,42.214055],[-8.608917,42.214678],[-8.60834,42.215246],[-8.60808,42.215631],[-8.607515,42.217419],[-8.607548,42.21838],[-8.607635,42.218891],[-8.607632,42.219525],[-8.607704,42.220505],[-8.607785,42.220763],[-8.608114,42.22141],[-8.608127,42.222538],[-8.60798,42.22285],[-8.607869,42.222964],[-8.607478,42.223137],[-8.60735,42.223446],[-8.606742,42.224255],[-8.606529,42.224695],[-8.606047,42.225388],[-8.605963,42.225816],[-8.605987,42.225893],[-8.606284,42.226232],[-8.606656,42.226574],[-8.606756,42.226737],[-8.606954,42.227263],[-8.607058,42.22736],[-8.60785,42.227613],[-8.608441,42.227902],[-8.609324,42.228196],[-8.609937,42.228598],[-8.610369,42.228824],[-8.610609,42.229031],[-8.610951,42.229467],[-8.610994,42.22955],[-8.610931,42.22966],[-8.610937,42.229737],[-8.611229,42.230169],[-8.611434,42.230242],[-8.611524,42.23033],[-8.611581,42.230509],[-8.611794,42.230824],[-8.61254,42.231547],[-8.612405,42.231682],[-8.612345,42.231898],[-8.612613,42.232733],[-8.612863,42.233774],[-8.613763,42.235242],[-8.613036,42.238613],[-8.612773,42.239137],[-8.612476,42.239603],[-8.611842,42.240297],[-8.610282,42.241552],[-8.610828,42.241577],[-8.610827,42.241684],[-8.610701,42.242214],[-8.610664,42.242958],[-8.610562,42.243635],[-8.610363,42.24425],[-8.610183,42.245148],[-8.609901,42.245566],[-8.60983,42.245753],[-8.609991,42.246231],[-8.610197,42.246536],[-8.610627,42.24753],[-8.610988,42.248608],[-8.610976,42.248805],[-8.610818,42.249135],[-8.610784,42.249364],[-8.611078,42.250077],[-8.611271,42.250687],[-8.611305,42.25094],[-8.611452,42.251197],[-8.611436,42.251362],[-8.611203,42.251624],[-8.611241,42.251892],[-8.611374,42.252028],[-8.610582,42.252654],[-8.61024,42.252792],[-8.610249,42.25295],[-8.610353,42.253243],[-8.610747,42.253626],[-8.610726,42.253692],[-8.609503,42.254081],[-8.609357,42.254153],[-8.6093,42.254254],[-8.609587,42.254457],[-8.609805,42.254775],[-8.610057,42.255044],[-8.610019,42.255521],[-8.609906,42.255793],[-8.609633,42.256015],[-8.609368,42.256435],[-8.608962,42.256953],[-8.608168,42.258895],[-8.608055,42.259401],[-8.607889,42.259666],[-8.607923,42.259799],[-8.60792,42.260342],[-8.607973,42.260625],[-8.607944,42.261036],[-8.607689,42.261556],[-8.607594,42.262051],[-8.607657,42.262528],[-8.607987,42.263126],[-8.608041,42.263668],[-8.608229,42.264382],[-8.608317,42.265301],[-8.608683,42.265844],[-8.609122,42.2668],[-8.609507,42.267325],[-8.609656,42.267615],[-8.609888,42.268493],[-8.610108,42.268897],[-8.61052,42.269431],[-8.61071,42.269768],[-8.610973,42.270289],[-8.61103,42.270546],[-8.610836,42.271071],[-8.610516,42.271436],[-8.610349,42.271783],[-8.610357,42.276615],[-8.610329,42.276683],[-8.61022,42.276718],[-8.610228,42.277407],[-8.609932,42.278523],[-8.610363,42.27906],[-8.610471,42.279321],[-8.610597,42.279319],[-8.610473,42.280318],[-8.610368,42.280574],[-8.609617,42.280903],[-8.609025,42.281503],[-8.608829,42.281776],[-8.608708,42.281861],[-8.608971,42.282016],[-8.608538,42.282355],[-8.608446,42.282474],[-8.608262,42.282766],[-8.60811,42.283253],[-8.607751,42.283813],[-8.607746,42.283976],[-8.607849,42.284305],[-8.607846,42.28458],[-8.607715,42.28515],[-8.607602,42.285444],[-8.607767,42.286274],[-8.608017,42.286552],[-8.608239,42.287295],[-8.608458,42.28763],[-8.608505,42.288003],[-8.608683,42.288125],[-8.608664,42.288313],[-8.608755,42.288325],[-8.608431,42.290153],[-8.60803,42.291261],[-8.607853,42.292184],[-8.60769,42.292694],[-8.607587,42.293241],[-8.607385,42.293552],[-8.60737,42.293708],[-8.607512,42.293979],[-8.608204,42.294293],[-8.608911,42.294738],[-8.609269,42.295097],[-8.609618,42.295528],[-8.610107,42.295945],[-8.610298,42.29625],[-8.610206,42.296543],[-8.610194,42.296968],[-8.610087,42.297389],[-8.609826,42.298034],[-8.609642,42.298356],[-8.60956,42.298705],[-8.609587,42.299088],[-8.609545,42.299317],[-8.609592,42.299474],[-8.609133,42.299633],[-8.608996,42.29974],[-8.608675,42.300141],[-8.608125,42.300466],[-8.608175,42.300592],[-8.608403,42.300827],[-8.608229,42.30116],[-8.608259,42.301351],[-8.608219,42.301467],[-8.607995,42.301931],[-8.606394,42.303358],[-8.606201,42.303586],[-8.606083,42.303918],[-8.605904,42.304029],[-8.605936,42.304347],[-8.605907,42.305133],[-8.605717,42.30601],[-8.60554,42.306385],[-8.605334,42.306473],[-8.604862,42.306791],[-8.605421,42.30706],[-8.605332,42.307175],[-8.604957,42.30721],[-8.604775,42.30751],[-8.604788,42.307613],[-8.604694,42.307676],[-8.604293,42.307773],[-8.603883,42.307958],[-8.603299,42.308572],[-8.603234,42.308882],[-8.603187,42.309862],[-8.603107,42.310136],[-8.603685,42.310379],[-8.603809,42.310606],[-8.60397,42.310783],[-8.604227,42.310987],[-8.604467,42.311104],[-8.604652,42.311287],[-8.60484,42.311606],[-8.60552,42.312143],[-8.605747,42.312505],[-8.606068,42.313242],[-8.606189,42.31404],[-8.606355,42.314402],[-8.606597,42.314625],[-8.606885,42.315062],[-8.607126,42.315279],[-8.607445,42.315772],[-8.607507,42.315955],[-8.607434,42.316398],[-8.607508,42.316628],[-8.607163,42.317253],[-8.60683,42.317695],[-8.606689,42.31783],[-8.60618,42.318152],[-8.60597,42.318425],[-8.605964,42.318486],[-8.606132,42.318797],[-8.606178,42.319327],[-8.606239,42.319527],[-8.606742,42.320133],[-8.60735,42.320533],[-8.607492,42.320694],[-8.607577,42.321212],[-8.607275,42.322177],[-8.607194,42.322957],[-8.607204,42.323678],[-8.607063,42.324471],[-8.606919,42.324984],[-8.606738,42.325402],[-8.606237,42.325984],[-8.606198,42.326161],[-8.606241,42.326364],[-8.60619,42.326605],[-8.605828,42.326973],[-8.605667,42.327202],[-8.60559,42.327556],[-8.605613,42.327679],[-8.605812,42.32775],[-8.605827,42.328044],[-8.605951,42.328409],[-8.606443,42.329125],[-8.606816,42.329806],[-8.606904,42.330314],[-8.606968,42.3313],[-8.606935,42.332309],[-8.606873,42.332881],[-8.607209,42.33292],[-8.607285,42.332993],[-8.607423,42.333279],[-8.607416,42.33459],[-8.60745,42.334861],[-8.607682,42.335163],[-8.607943,42.335371],[-8.607992,42.335485],[-8.607887,42.335601],[-8.607788,42.335861],[-8.607358,42.336142],[-8.607486,42.336414],[-8.607301,42.336457],[-8.607238,42.336287],[-8.606751,42.336512],[-8.606698,42.336587],[-8.606573,42.337193],[-8.606648,42.3375],[-8.606497,42.337876],[-8.606495,42.338256],[-8.606548,42.338554],[-8.606411,42.338972],[-8.606647,42.339389],[-8.606646,42.33988],[-8.606862,42.340093],[-8.607081,42.340518],[-8.607127,42.340843],[-8.607472,42.340927],[-8.608004,42.340982],[-8.608728,42.34149],[-8.608752,42.34192],[-8.609027,42.342701],[-8.608942,42.343364],[-8.608537,42.343683],[-8.608233,42.344026],[-8.607406,42.344428],[-8.607528,42.344722],[-8.607522,42.344799],[-8.607367,42.345032],[-8.606943,42.34538],[-8.606747,42.346634],[-8.607135,42.346941],[-8.607572,42.346944],[-8.607417,42.347056],[-8.60737,42.347263],[-8.607406,42.347336],[-8.607637,42.347271],[-8.607732,42.347314],[-8.60788,42.347741],[-8.60784,42.348202],[-8.60856,42.348542],[-8.608474,42.34876],[-8.60843,42.349304],[-8.608216,42.349673],[-8.608215,42.349763],[-8.608316,42.34983],[-8.608773,42.34984],[-8.609071,42.349691],[-8.609181,42.349448],[-8.609563,42.34955],[-8.609676,42.349748],[-8.609979,42.350045],[-8.610843,42.35013],[-8.611093,42.350288],[-8.611207,42.350394],[-8.611447,42.350988],[-8.611659,42.351325],[-8.611975,42.351389],[-8.612068,42.351432],[-8.612087,42.351486],[-8.6121,42.351666],[-8.61192,42.352094],[-8.611662,42.352326],[-8.611802,42.352427],[-8.611961,42.352651],[-8.612279,42.352861],[-8.612338,42.353032],[-8.612464,42.353053],[-8.612714,42.353006],[-8.613206,42.35317],[-8.613244,42.353275],[-8.613724,42.353647],[-8.614061,42.354069],[-8.614329,42.354691],[-8.614421,42.354788],[-8.614583,42.354862],[-8.614819,42.355312],[-8.615124,42.355538],[-8.61538,42.355814],[-8.615947,42.356187],[-8.616188,42.356604],[-8.616268,42.356818],[-8.616192,42.357221],[-8.61636,42.357471],[-8.616321,42.357582],[-8.616115,42.357837],[-8.615479,42.358458],[-8.615379,42.358917],[-8.61576,42.359528],[-8.615761,42.359666],[-8.615684,42.359867],[-8.615679,42.360218],[-8.616056,42.360485],[-8.616201,42.360786],[-8.616153,42.361262],[-8.61634,42.361813],[-8.616247,42.362539],[-8.616547,42.363297],[-8.616714,42.363477],[-8.61674,42.363707],[-8.616723,42.364027],[-8.616549,42.364208],[-8.616569,42.36487],[-8.616839,42.365274],[-8.61698,42.365301],[-8.617142,42.365159],[-8.617426,42.365095],[-8.617716,42.364856],[-8.617865,42.364589],[-8.617891,42.364264],[-8.617937,42.36421],[-8.618254,42.364474],[-8.618237,42.364966],[-8.618399,42.365268],[-8.61863,42.365532],[-8.619217,42.365962],[-8.619694,42.366738],[-8.620179,42.366617],[-8.620493,42.367139],[-8.620543,42.36731],[-8.620532,42.367535],[-8.620597,42.367697],[-8.621025,42.367978],[-8.621657,42.368112],[-8.622008,42.368239],[-8.622615,42.368346],[-8.623596,42.368832],[-8.623995,42.368943],[-8.624329,42.368983],[-8.624851,42.369303],[-8.625123,42.369409],[-8.62538,42.369661],[-8.625667,42.370105],[-8.625833,42.370494],[-8.626103,42.370716],[-8.625996,42.371207],[-8.625893,42.371427],[-8.625592,42.371827],[-8.624901,42.372553],[-8.624807,42.372731],[-8.624814,42.372854],[-8.625403,42.373793],[-8.625384,42.374426],[-8.625638,42.374682],[-8.625941,42.375204],[-8.626703,42.375957],[-8.627019,42.3764],[-8.626963,42.377141],[-8.627037,42.377282],[-8.62727,42.377482],[-8.627234,42.377908],[-8.627344,42.378467],[-8.627554,42.378736],[-8.627739,42.378886],[-8.62774,42.378987],[-8.628786,42.379362],[-8.629087,42.379606],[-8.629213,42.37977],[-8.629598,42.38078],[-8.629464,42.381522],[-8.629573,42.381996],[-8.629675,42.382907],[-8.629781,42.383011],[-8.629766,42.383126],[-8.629928,42.383428],[-8.630091,42.383627],[-8.629966,42.383976],[-8.630525,42.384548],[-8.630623,42.384595],[-8.6305,42.385167],[-8.630434,42.38618],[-8.630363,42.386426],[-8.629996,42.386896],[-8.629749,42.387372],[-8.629476,42.387769],[-8.629501,42.388048],[-8.629912,42.389026],[-8.63001,42.389455],[-8.629959,42.39022],[-8.62979,42.390603],[-8.629695,42.391116],[-8.629756,42.391705],[-8.629867,42.391909],[-8.629897,42.392124],[-8.629662,42.39286],[-8.629555,42.393357],[-8.629461,42.394235],[-8.629021,42.394992],[-8.628846,42.395919],[-8.628883,42.396053],[-8.629047,42.396209],[-8.629704,42.396709],[-8.629858,42.396879],[-8.629976,42.397639],[-8.629757,42.398274],[-8.629796,42.398793],[-8.629893,42.399079],[-8.630155,42.399511],[-8.630533,42.400327],[-8.630847,42.400691],[-8.632042,42.40175],[-8.63217,42.401966],[-8.632164,42.403279],[-8.63235,42.404444],[-8.632531,42.405127],[-8.632613,42.405855],[-8.63272,42.406184],[-8.633132,42.407033],[-8.633382,42.408503],[-8.633338,42.409155],[-8.633117,42.409856],[-8.633064,42.410525],[-8.633108,42.411142],[-8.633056,42.412209],[-8.633182,42.41312],[-8.633037,42.413992],[-8.633246,42.41501],[-8.633229,42.415242],[-8.633126,42.415473],[-8.633136,42.415688],[-8.633358,42.416116],[-8.633547,42.416358],[-8.633426,42.416408],[-8.633526,42.416684],[-8.633082,42.416754],[-8.633101,42.416879],[-8.633409,42.416885],[-8.633508,42.416955],[-8.633603,42.416955],[-8.633646,42.417074],[-8.633614,42.417698],[-8.633669,42.417833],[-8.63409,42.418144],[-8.634339,42.418228],[-8.634294,42.418312],[-8.6349,42.418376],[-8.635514,42.418545],[-8.635643,42.418598],[-8.635677,42.418665],[-8.635956,42.418668],[-8.63616,42.418772],[-8.636238,42.419102],[-8.636474,42.419701],[-8.636476,42.420336],[-8.636398,42.421508],[-8.636543,42.421507],[-8.63656,42.421593],[-8.636628,42.421637],[-8.636861,42.421647],[-8.63685,42.421772],[-8.636785,42.421813],[-8.636773,42.422173],[-8.63705,42.423912],[-8.637007,42.424406],[-8.637208,42.424861],[-8.637888,42.425817],[-8.638085,42.426056],[-8.63891,42.42667],[-8.639271,42.427034],[-8.639467,42.427099],[-8.639456,42.427264],[-8.639529,42.427314],[-8.639911,42.427429],[-8.640492,42.427877],[-8.641949,42.428736],[-8.642245,42.428556],[-8.642761,42.429188],[-8.642849,42.429362],[-8.64303,42.429448],[-8.643547,42.42984],[-8.643923,42.43052],[-8.644198,42.430735],[-8.644227,42.43101],[-8.644974,42.431561],[-8.644992,42.43192],[-8.645113,42.432293],[-8.645173,42.432904],[-8.645169,42.43338],[-8.645052,42.433873],[-8.644826,42.434195],[-8.645223,42.434523],[-8.644922,42.434768],[-8.644795,42.434815],[-8.643729,42.435869],[-8.643353,42.436371],[-8.643189,42.436449],[-8.643162,42.436531],[-8.64327,42.436547],[-8.643253,42.436635],[-8.643323,42.436649],[-8.643208,42.437039],[-8.643349,42.437061],[-8.643271,42.437994],[-8.642832,42.438956],[-8.642571,42.440147],[-8.642639,42.440569],[-8.642973,42.441202],[-8.642989,42.441913],[-8.643039,42.442146],[-8.643605,42.443704],[-8.643645,42.44397],[-8.643421,42.444388],[-8.643327,42.444725],[-8.643095,42.445069],[-8.642822,42.445697],[-8.642697,42.446341],[-8.642799,42.446657],[-8.642873,42.447797],[-8.642758,42.448063],[-8.642569,42.448274],[-8.642338,42.448638],[-8.642103,42.44916],[-8.642059,42.449607],[-8.641915,42.449908],[-8.641664,42.450835],[-8.641553,42.451049],[-8.641457,42.451656],[-8.641867,42.45277],[-8.643539,42.455245],[-8.643861,42.455796],[-8.643953,42.456098],[-8.644444,42.456825],[-8.644335,42.456929],[-8.644259,42.45708],[-8.644191,42.457561],[-8.644337,42.458271],[-8.644308,42.458671],[-8.644334,42.458866],[-8.644544,42.459639],[-8.644712,42.460043],[-8.644699,42.460594],[-8.644654,42.46077],[-8.644277,42.461114],[-8.644002,42.461752],[-8.644198,42.461989],[-8.644358,42.462399],[-8.644354,42.463143],[-8.644293,42.463503],[-8.644322,42.463651],[-8.644627,42.463987],[-8.64532,42.464129],[-8.645771,42.464284],[-8.646027,42.464568],[-8.646042,42.464801],[-8.646786,42.464957],[-8.647002,42.465044],[-8.64735,42.465268],[-8.647783,42.465799],[-8.647973,42.465915],[-8.648408,42.466901],[-8.648466,42.467213],[-8.648454,42.467385],[-8.648289,42.467895],[-8.648326,42.468692],[-8.648236,42.468697],[-8.648299,42.469097],[-8.648397,42.469352],[-8.648378,42.46948],[-8.648469,42.469958],[-8.648456,42.470829],[-8.648356,42.471344],[-8.648757,42.47169],[-8.649118,42.472402],[-8.649427,42.47328],[-8.649624,42.473558],[-8.649641,42.473683],[-8.649539,42.474093],[-8.649676,42.474484],[-8.649853,42.474769],[-8.650053,42.475621],[-8.650133,42.476504],[-8.650558,42.477211],[-8.650641,42.477802],[-8.650825,42.478471],[-8.650843,42.478795],[-8.651213,42.479884],[-8.651058,42.480348],[-8.6507,42.480872],[-8.650703,42.481013],[-8.650853,42.481345],[-8.650915,42.481895],[-8.650993,42.482115],[-8.650849,42.48303],[-8.650869,42.483364],[-8.650809,42.483676],[-8.650728,42.483804],[-8.650778,42.484071],[-8.650746,42.484361],[-8.650768,42.484797],[-8.650743,42.484987],[-8.650642,42.485237],[-8.650586,42.48611],[-8.650498,42.486367],[-8.650362,42.486494],[-8.650248,42.486686],[-8.649985,42.487425],[-8.649976,42.487564],[-8.650037,42.487788],[-8.649994,42.487907],[-8.650042,42.48852],[-8.649928,42.488797],[-8.649608,42.489182],[-8.649536,42.489513],[-8.649385,42.489733],[-8.649356,42.490173],[-8.649247,42.490493],[-8.649145,42.491036],[-8.648839,42.491364],[-8.648716,42.491972],[-8.6485,42.492335],[-8.648352,42.493249],[-8.648354,42.494085],[-8.648233,42.494493],[-8.648271,42.494592],[-8.648486,42.494797],[-8.648687,42.495468],[-8.648843,42.495637],[-8.648958,42.495971],[-8.648956,42.496233],[-8.649001,42.496368],[-8.649154,42.496618],[-8.649148,42.496831],[-8.648925,42.497324],[-8.648902,42.497503],[-8.649131,42.497944],[-8.649159,42.498544],[-8.649631,42.499465],[-8.649617,42.499519],[-8.649451,42.499596],[-8.649409,42.500125],[-8.649751,42.500546],[-8.649825,42.500725],[-8.649731,42.50119],[-8.649833,42.501426],[-8.650313,42.501802],[-8.650479,42.502098],[-8.65057,42.502539],[-8.650934,42.503281],[-8.650912,42.503837],[-8.65082,42.504063],[-8.650347,42.504479],[-8.65005,42.50468],[-8.649794,42.504788],[-8.649782,42.505006],[-8.649315,42.505765],[-8.649079,42.506618],[-8.648881,42.507578],[-8.649076,42.508068],[-8.649197,42.508559],[-8.649254,42.509794],[-8.649019,42.510336],[-8.648639,42.51057],[-8.649712,42.511034],[-8.65013,42.511345],[-8.650214,42.511606],[-8.650042,42.512431],[-8.650014,42.512776],[-8.649907,42.513042],[-8.649407,42.513521],[-8.649145,42.513858],[-8.648457,42.51523],[-8.647672,42.516354],[-8.647406,42.516927],[-8.64691,42.517595],[-8.646297,42.518071],[-8.645504,42.518433],[-8.645384,42.518715],[-8.645429,42.519548],[-8.645393,42.519781],[-8.64525,42.519985],[-8.644778,42.520348],[-8.644674,42.520493],[-8.644582,42.520896],[-8.644863,42.521102],[-8.645083,42.521381],[-8.645183,42.52221],[-8.645321,42.522514],[-8.645593,42.522855],[-8.64572,42.52328],[-8.645892,42.523405],[-8.646129,42.523469],[-8.646591,42.523378],[-8.646739,42.523409],[-8.646415,42.523875],[-8.646539,42.524493],[-8.646128,42.524548],[-8.646005,42.524611],[-8.645546,42.525343],[-8.645244,42.52569],[-8.645016,42.525826],[-8.644829,42.526065],[-8.644698,42.526496],[-8.645021,42.526602],[-8.645024,42.527408],[-8.645262,42.528265],[-8.645379,42.528361],[-8.645608,42.52844],[-8.646202,42.528505],[-8.646331,42.528641],[-8.646572,42.529346],[-8.646595,42.529919],[-8.646688,42.530344],[-8.646665,42.530611],[-8.646358,42.531343],[-8.646267,42.531684],[-8.646176,42.532588],[-8.645673,42.53334],[-8.645493,42.53401],[-8.645444,42.534494],[-8.645483,42.535055],[-8.64562,42.535208],[-8.645505,42.53559],[-8.645461,42.536041],[-8.645204,42.536554],[-8.645183,42.536675],[-8.645227,42.536852],[-8.64546,42.537211],[-8.64536,42.537696],[-8.644768,42.538716],[-8.644642,42.538833],[-8.644189,42.539095],[-8.64405,42.539249],[-8.643541,42.540611],[-8.643463,42.540719],[-8.643344,42.541119],[-8.643161,42.54146],[-8.642971,42.541605],[-8.642626,42.542578],[-8.642591,42.542771],[-8.642947,42.543442],[-8.643039,42.543786],[-8.642963,42.543968],[-8.642527,42.54427],[-8.642382,42.544521],[-8.642281,42.544817],[-8.642266,42.544985],[-8.64233,42.54534],[-8.642649,42.545796],[-8.642676,42.545901],[-8.642648,42.546208],[-8.64254,42.546595],[-8.642433,42.547474],[-8.642545,42.547817],[-8.642228,42.547977],[-8.641471,42.54852],[-8.640397,42.549431],[-8.640141,42.549479],[-8.639577,42.549404],[-8.639423,42.54973],[-8.638901,42.551375],[-8.638706,42.552708],[-8.638458,42.553868],[-8.638199,42.554458],[-8.637936,42.554959],[-8.637858,42.555017],[-8.637748,42.556165],[-8.637737,42.556741],[-8.637667,42.556758],[-8.637562,42.558168],[-8.637782,42.558382],[-8.637882,42.558769],[-8.63866,42.55961],[-8.638983,42.56017],[-8.639616,42.560172],[-8.639609,42.560848],[-8.639651,42.561088],[-8.639196,42.561392],[-8.639209,42.561468],[-8.639675,42.562154],[-8.639667,42.562211],[-8.63975,42.562323],[-8.639981,42.56229],[-8.640191,42.562352],[-8.640397,42.562309],[-8.640448,42.562334],[-8.640799,42.562795],[-8.640914,42.563024],[-8.641347,42.563412],[-8.641638,42.563929],[-8.641728,42.564298],[-8.641723,42.564662],[-8.641779,42.564721],[-8.64188,42.564716],[-8.641882,42.565094],[-8.641823,42.565398],[-8.641601,42.565999],[-8.641661,42.566434],[-8.641708,42.566505],[-8.641627,42.566651],[-8.641607,42.566826],[-8.64195,42.567241],[-8.642154,42.567891],[-8.64214,42.568298],[-8.642014,42.568486],[-8.642433,42.568634],[-8.642683,42.56882],[-8.642747,42.568911],[-8.642894,42.569426],[-8.643728,42.569935],[-8.64434,42.570103],[-8.644593,42.57032],[-8.644683,42.570508],[-8.644494,42.570932],[-8.644459,42.571113],[-8.643971,42.571602],[-8.643011,42.571803],[-8.643132,42.572158],[-8.643107,42.57264],[-8.643271,42.573809],[-8.643459,42.574291],[-8.643279,42.575177],[-8.643176,42.575342],[-8.643266,42.576134],[-8.643152,42.57693],[-8.64329,42.57725],[-8.643374,42.577995],[-8.643345,42.579928],[-8.643445,42.580335],[-8.644129,42.580807],[-8.644614,42.581481],[-8.644804,42.582047],[-8.644762,42.582228],[-8.644547,42.582612],[-8.64474,42.583],[-8.644704,42.58349],[-8.644954,42.583916],[-8.645705,42.584613],[-8.645826,42.584825],[-8.64585,42.585444],[-8.645801,42.585693],[-8.645921,42.586233],[-8.645921,42.586419],[-8.645882,42.58659],[-8.64563,42.586906],[-8.64526,42.588081],[-8.645407,42.588369],[-8.645391,42.588797],[-8.645497,42.589346],[-8.645484,42.589543],[-8.644828,42.590499],[-8.644032,42.591355],[-8.643991,42.591526],[-8.643994,42.591724],[-8.644135,42.592016],[-8.644268,42.592607],[-8.64376,42.593812],[-8.643551,42.594514],[-8.643688,42.595781],[-8.643613,42.596238],[-8.643549,42.597973],[-8.643354,42.59819],[-8.643328,42.598272],[-8.643293,42.598651],[-8.643329,42.598977],[-8.643216,42.599518],[-8.643092,42.599695],[-8.642947,42.59977],[-8.6429,42.599968],[-8.642854,42.60034],[-8.643099,42.600402],[-8.642962,42.6012],[-8.642992,42.601311],[-8.64283,42.601492],[-8.642891,42.601522],[-8.642745,42.601755],[-8.642621,42.602065],[-8.642372,42.603537],[-8.642976,42.603687],[-8.643549,42.60419],[-8.645399,42.606175],[-8.645452,42.606404],[-8.645458,42.607577],[-8.64556,42.607859],[-8.645549,42.608157],[-8.6455,42.60822],[-8.64531,42.608241],[-8.645283,42.608324],[-8.645147,42.608301],[-8.644839,42.609578],[-8.64441,42.610077],[-8.644401,42.610253],[-8.644502,42.610941],[-8.644202,42.611564],[-8.644131,42.611979],[-8.644511,42.612982],[-8.644841,42.613615],[-8.64486,42.613728],[-8.644835,42.613992],[-8.644734,42.614295],[-8.644492,42.615873],[-8.644534,42.616119],[-8.644629,42.6162],[-8.64465,42.616535],[-8.644802,42.616933],[-8.644772,42.617261],[-8.644623,42.617856],[-8.644628,42.618669],[-8.644575,42.618825],[-8.644746,42.619161],[-8.644739,42.619319],[-8.644612,42.619638],[-8.64445,42.619841],[-8.644388,42.619994],[-8.644357,42.62043],[-8.644246,42.620704],[-8.643468,42.622152],[-8.643341,42.622903],[-8.643395,42.623156],[-8.643659,42.623466],[-8.643782,42.623681],[-8.643806,42.624313],[-8.643916,42.624957],[-8.64389,42.625485],[-8.643919,42.625635],[-8.644033,42.625823],[-8.644394,42.626124],[-8.644807,42.626585],[-8.644992,42.627443],[-8.645119,42.627742],[-8.64509,42.628727],[-8.645013,42.629574],[-8.644931,42.630029],[-8.644796,42.630363],[-8.644783,42.630551],[-8.644623,42.630845],[-8.644598,42.63135],[-8.644516,42.631797],[-8.644615,42.631957],[-8.644844,42.632156],[-8.645216,42.632383],[-8.645269,42.632814],[-8.645242,42.633191],[-8.645012,42.633735],[-8.644782,42.63507],[-8.644842,42.635656],[-8.644843,42.636915],[-8.644614,42.637397],[-8.644686,42.637782],[-8.644647,42.638334],[-8.644382,42.639165],[-8.644128,42.639614],[-8.643688,42.639943],[-8.643346,42.64049],[-8.64308,42.64123],[-8.642996,42.641704],[-8.643036,42.642171],[-8.643123,42.642496],[-8.643006,42.642675],[-8.643304,42.642827],[-8.643382,42.64301],[-8.643401,42.643631],[-8.643205,42.644323],[-8.64317,42.644617],[-8.643268,42.644884],[-8.643407,42.645104],[-8.643344,42.645401],[-8.643428,42.645601],[-8.643583,42.645779],[-8.643568,42.646311],[-8.643689,42.646954],[-8.643925,42.647196],[-8.644301,42.647441],[-8.644626,42.647862],[-8.644755,42.648389],[-8.644908,42.648732],[-8.644931,42.648981],[-8.645081,42.649354],[-8.645226,42.64941],[-8.645253,42.649333],[-8.64559,42.649354],[-8.645879,42.649539],[-8.646034,42.649569],[-8.64612,42.649747],[-8.646457,42.65006],[-8.646783,42.650267],[-8.646796,42.650542],[-8.646939,42.650659],[-8.64687,42.650777],[-8.646457,42.650905],[-8.646357,42.651],[-8.646355,42.651261],[-8.646466,42.651468],[-8.646387,42.651647],[-8.646208,42.651796],[-8.645636,42.652093],[-8.645351,42.652573],[-8.644561,42.653503],[-8.644197,42.653735],[-8.644284,42.654122],[-8.644266,42.654187],[-8.643913,42.654673],[-8.643233,42.654814],[-8.643056,42.654967],[-8.643015,42.655076],[-8.64311,42.655308],[-8.643104,42.655448],[-8.642935,42.655499],[-8.642383,42.655543],[-8.642062,42.655844],[-8.642277,42.656071],[-8.642442,42.656548],[-8.642656,42.657004],[-8.64283,42.657232],[-8.642841,42.65732],[-8.642426,42.65755],[-8.6422,42.657619],[-8.641546,42.657941],[-8.640106,42.658165],[-8.640036,42.658196],[-8.639845,42.658612],[-8.639732,42.658668],[-8.639326,42.658681],[-8.639238,42.658636],[-8.639071,42.658408],[-8.638937,42.658303],[-8.638719,42.658198],[-8.638286,42.658076],[-8.63811,42.658138],[-8.638011,42.658401],[-8.636951,42.658479],[-8.63659,42.658758],[-8.635356,42.658967],[-8.63536,42.659239],[-8.635244,42.659466],[-8.635261,42.659583],[-8.635775,42.660296],[-8.636179,42.660684],[-8.63639,42.661071],[-8.636437,42.661375],[-8.636295,42.661591],[-8.635592,42.66209],[-8.635189,42.662559],[-8.63459,42.66302],[-8.633926,42.663853],[-8.633443,42.664919],[-8.633235,42.665759],[-8.633145,42.666507],[-8.633158,42.667122],[-8.633121,42.667218],[-8.633135,42.667281],[-8.633824,42.667196],[-8.633793,42.667458],[-8.633865,42.6683],[-8.633864,42.669274],[-8.633767,42.670019],[-8.63349,42.670839],[-8.633431,42.671191],[-8.63316,42.672102],[-8.633019,42.672463],[-8.633008,42.672833],[-8.633028,42.672942],[-8.633161,42.673098],[-8.63325,42.673328],[-8.633286,42.674344],[-8.63334,42.674508],[-8.63358,42.674738],[-8.634893,42.674861],[-8.635645,42.675009],[-8.636199,42.675216],[-8.637185,42.675484],[-8.637443,42.675627],[-8.637786,42.675911],[-8.638673,42.676376],[-8.638599,42.676639],[-8.638273,42.676907],[-8.637376,42.677184],[-8.637213,42.677289],[-8.637131,42.677399],[-8.637096,42.677545],[-8.637129,42.677859],[-8.636967,42.67833],[-8.636955,42.678523],[-8.637083,42.678704],[-8.637418,42.678908],[-8.637354,42.678999],[-8.637116,42.679067],[-8.637381,42.679193],[-8.637377,42.679222],[-8.637073,42.679502],[-8.636953,42.679733],[-8.636549,42.680215],[-8.636328,42.680329],[-8.636222,42.680433],[-8.636079,42.680714],[-8.636196,42.681054],[-8.636651,42.6818],[-8.63665,42.681896],[-8.636724,42.682058],[-8.636976,42.68232],[-8.63707,42.682521],[-8.637038,42.682585],[-8.63711,42.682917],[-8.637089,42.683098],[-8.636712,42.683523],[-8.636549,42.68429],[-8.636922,42.685054],[-8.63696,42.685259],[-8.637192,42.685394],[-8.63708,42.685728],[-8.637483,42.686592],[-8.637518,42.686859],[-8.637684,42.686889],[-8.637783,42.68703],[-8.637651,42.687172],[-8.637744,42.687454],[-8.637734,42.687799],[-8.637673,42.687886],[-8.637656,42.688085],[-8.638268,42.688324],[-8.63837,42.688418],[-8.638339,42.688561],[-8.638091,42.688851],[-8.638159,42.689154],[-8.638146,42.689375],[-8.638243,42.689648],[-8.638587,42.690017],[-8.638505,42.690112],[-8.638497,42.690193],[-8.638765,42.690473],[-8.637569,42.690988],[-8.637609,42.691418],[-8.637485,42.6919],[-8.637409,42.692043],[-8.637511,42.692303],[-8.637456,42.692684],[-8.637684,42.692859],[-8.638158,42.694022],[-8.638279,42.69451],[-8.638232,42.694778],[-8.638321,42.695685],[-8.638358,42.695751],[-8.638464,42.695864],[-8.638877,42.696095],[-8.639351,42.696597],[-8.639564,42.696598],[-8.639926,42.696517],[-8.640395,42.696662],[-8.640563,42.696785],[-8.640839,42.697226],[-8.640958,42.697642],[-8.641031,42.698414],[-8.640894,42.698756],[-8.640612,42.699107],[-8.640386,42.699278],[-8.640053,42.699389],[-8.640243,42.699874],[-8.640161,42.70006],[-8.640179,42.700563],[-8.640054,42.701032],[-8.640321,42.701343],[-8.64078,42.701426],[-8.640901,42.701566],[-8.641022,42.701622],[-8.641201,42.701641],[-8.64147,42.7016],[-8.642012,42.701454],[-8.642133,42.701549],[-8.642171,42.701682],[-8.642293,42.701853],[-8.642129,42.702314],[-8.64209,42.702598],[-8.64227,42.703836],[-8.642393,42.704323],[-8.642476,42.704494],[-8.642473,42.704722],[-8.642363,42.705092],[-8.642453,42.705557],[-8.64276,42.70569],[-8.643101,42.705921],[-8.643892,42.70598],[-8.644342,42.706135],[-8.644551,42.706271],[-8.644651,42.706463],[-8.644764,42.706527],[-8.645397,42.706457],[-8.646654,42.706731],[-8.647493,42.706744],[-8.647496,42.707327],[-8.647603,42.707345],[-8.647155,42.709209],[-8.647295,42.709612],[-8.64731,42.70979],[-8.647241,42.71057],[-8.647064,42.711498],[-8.647138,42.71227],[-8.647248,42.712838],[-8.647469,42.713489],[-8.648127,42.714867],[-8.648248,42.715329],[-8.648427,42.716251],[-8.648665,42.716986],[-8.648553,42.717729],[-8.648762,42.718108],[-8.648771,42.718253],[-8.649142,42.718535],[-8.649154,42.718801],[-8.649205,42.718833],[-8.649204,42.718887],[-8.649077,42.719304],[-8.648929,42.719612],[-8.649107,42.71973],[-8.649529,42.719881],[-8.649561,42.720009],[-8.649493,42.720195],[-8.649864,42.720463],[-8.650197,42.720767],[-8.650258,42.720875],[-8.650264,42.721029],[-8.650166,42.721414],[-8.64987,42.722138],[-8.649865,42.722262],[-8.650143,42.722635],[-8.650262,42.723081],[-8.65049,42.723309],[-8.650563,42.723596],[-8.650572,42.723687],[-8.650465,42.723965],[-8.650584,42.724037],[-8.65043,42.724851],[-8.650414,42.72524],[-8.650418,42.725293],[-8.650541,42.725422],[-8.650547,42.725688],[-8.650895,42.726114],[-8.651621,42.725864],[-8.652391,42.725726],[-8.6524,42.725513],[-8.652365,42.725433],[-8.653157,42.725537],[-8.653907,42.72548],[-8.653914,42.725524],[-8.653989,42.725557],[-8.655489,42.725425],[-8.65548,42.725384],[-8.655645,42.725384],[-8.655828,42.725478],[-8.65604,42.725421],[-8.65621,42.725466],[-8.656149,42.725626],[-8.657675,42.726026],[-8.658454,42.726383],[-8.65842,42.726713],[-8.659089,42.726848],[-8.659688,42.726907],[-8.659767,42.726956],[-8.659865,42.727126],[-8.660239,42.727239],[-8.660536,42.727246],[-8.660929,42.727077],[-8.661339,42.727081],[-8.661119,42.727918],[-8.661028,42.728534],[-8.660924,42.730107],[-8.660973,42.730919],[-8.6613,42.732163],[-8.661597,42.733633],[-8.661653,42.734102],[-8.661664,42.734872],[-8.661623,42.735306],[-8.661554,42.73531],[-8.661546,42.735363],[-8.661533,42.736745],[-8.661681,42.736765],[-8.661758,42.738898],[-8.661597,42.738912],[-8.661352,42.739064],[-8.661349,42.73951],[-8.661299,42.739755],[-8.660786,42.739802],[-8.66052,42.739985],[-8.660241,42.739963],[-8.660117,42.740294],[-8.659692,42.740861],[-8.659509,42.741176],[-8.659362,42.741596],[-8.659239,42.741818],[-8.658639,42.742393],[-8.658199,42.742935],[-8.657608,42.743374],[-8.657451,42.743623],[-8.657148,42.744321],[-8.656609,42.744557],[-8.656442,42.744666],[-8.656406,42.744739],[-8.656283,42.744702],[-8.655047,42.745447],[-8.654626,42.74558],[-8.654061,42.745615],[-8.653579,42.745828],[-8.653329,42.746047],[-8.652788,42.746853],[-8.652809,42.747455],[-8.652273,42.748396],[-8.652338,42.74882],[-8.652433,42.748855],[-8.653488,42.74887],[-8.653779,42.748918],[-8.654544,42.748911],[-8.653637,42.751357],[-8.653435,42.751766],[-8.653641,42.751833],[-8.653348,42.75237],[-8.652776,42.753786],[-8.652853,42.753833],[-8.65293,42.754064],[-8.652866,42.754136],[-8.652753,42.754171],[-8.652541,42.754445],[-8.652062,42.755709],[-8.65209,42.755864],[-8.652336,42.755993],[-8.652322,42.756101],[-8.652042,42.756225],[-8.651793,42.756429],[-8.651681,42.75663],[-8.651589,42.756926],[-8.651444,42.757506],[-8.651505,42.757549],[-8.651339,42.758534],[-8.651279,42.759588],[-8.651303,42.759947],[-8.653442,42.760096],[-8.653639,42.761368],[-8.65381,42.762057],[-8.653748,42.762593],[-8.653649,42.762892],[-8.654253,42.763239],[-8.654229,42.763267],[-8.654388,42.76339],[-8.654502,42.763881],[-8.654629,42.764035],[-8.654634,42.764131],[-8.654842,42.764181],[-8.654865,42.764384],[-8.65496,42.764562],[-8.655315,42.764758],[-8.655419,42.764959],[-8.655347,42.765338],[-8.655124,42.765352],[-8.65504,42.765622],[-8.654641,42.765678],[-8.654223,42.765869],[-8.654152,42.766377],[-8.654173,42.766459],[-8.654267,42.766543],[-8.654595,42.766517],[-8.655056,42.76667],[-8.655451,42.766994],[-8.653576,42.769471],[-8.65311,42.769881],[-8.653212,42.76999],[-8.653623,42.770247],[-8.65372,42.770456],[-8.653847,42.770458],[-8.653989,42.770383],[-8.654246,42.770387],[-8.654495,42.770883],[-8.65459,42.771184],[-8.654554,42.77126],[-8.654188,42.771243],[-8.654134,42.771272],[-8.653567,42.773866],[-8.6541,42.77398],[-8.65379,42.776031],[-8.653821,42.776129],[-8.653603,42.776554],[-8.653611,42.77683],[-8.653745,42.777213],[-8.653866,42.777262],[-8.654014,42.777401],[-8.653845,42.777517],[-8.65352,42.777902],[-8.653458,42.778102],[-8.653585,42.778558],[-8.65356,42.778725],[-8.653491,42.778802],[-8.652738,42.779303],[-8.651924,42.779993],[-8.651478,42.78008],[-8.651061,42.780223],[-8.65096,42.780681],[-8.650888,42.780672],[-8.650076,42.784208],[-8.649868,42.784654],[-8.64945,42.784617],[-8.648967,42.784969],[-8.648675,42.785439],[-8.647803,42.786026],[-8.647822,42.786331],[-8.647953,42.786493],[-8.647981,42.786765],[-8.648138,42.786949],[-8.647757,42.78743],[-8.647737,42.788111],[-8.647208,42.788033],[-8.646624,42.789898],[-8.646541,42.789938],[-8.64601,42.789849],[-8.645357,42.790029],[-8.644892,42.790044],[-8.644959,42.790323],[-8.644846,42.790705],[-8.644847,42.791397],[-8.644669,42.79191],[-8.644538,42.792055],[-8.64393,42.792425],[-8.643709,42.792606],[-8.643329,42.792995],[-8.642745,42.793432],[-8.642716,42.79354],[-8.642585,42.793688],[-8.6417,42.794392],[-8.64166,42.794527],[-8.641717,42.794664],[-8.642036,42.794991],[-8.642321,42.795371],[-8.642368,42.795543],[-8.64163,42.796044],[-8.641381,42.79616],[-8.641077,42.796176],[-8.640545,42.796294],[-8.640199,42.79649],[-8.639941,42.796479],[-8.639542,42.796359],[-8.639155,42.796473],[-8.639098,42.79662],[-8.639111,42.796798],[-8.638873,42.797013],[-8.638796,42.797285],[-8.637985,42.797856],[-8.638075,42.797924],[-8.638002,42.798028],[-8.637098,42.798397],[-8.637011,42.7985],[-8.637006,42.798577],[-8.636451,42.799217],[-8.635772,42.798947],[-8.635568,42.798918],[-8.634601,42.799469],[-8.634509,42.799623],[-8.6345,42.799658],[-8.634565,42.799668],[-8.634685,42.799645],[-8.635477,42.800095],[-8.635825,42.800173],[-8.636072,42.800283],[-8.636309,42.80054],[-8.636505,42.800891],[-8.637039,42.801065],[-8.637281,42.801205],[-8.637484,42.801529],[-8.637909,42.802023],[-8.637886,42.802146],[-8.637616,42.802498],[-8.637789,42.802567],[-8.637787,42.802613],[-8.63667,42.803766],[-8.63721,42.803958],[-8.638093,42.804404],[-8.637868,42.804982],[-8.637671,42.805229],[-8.637262,42.805953],[-8.63752,42.806366],[-8.637539,42.806606],[-8.637487,42.80674],[-8.637261,42.80695],[-8.636889,42.807185],[-8.636476,42.807233],[-8.635869,42.8075],[-8.635314,42.807641],[-8.634386,42.808067],[-8.633306,42.808475],[-8.633005,42.808614],[-8.632544,42.808917],[-8.631395,42.809395],[-8.630812,42.809519],[-8.63103,42.80928],[-8.631045,42.809215],[-8.630452,42.809511],[-8.628939,42.809836],[-8.628347,42.809882],[-8.627934,42.809827],[-8.626816,42.809467],[-8.626269,42.809445],[-8.62608,42.809471],[-8.625397,42.809715],[-8.624599,42.810085],[-8.624403,42.810214],[-8.623585,42.811432],[-8.623214,42.811562],[-8.622728,42.811864],[-8.622549,42.812187],[-8.622489,42.812441],[-8.622157,42.812908],[-8.622123,42.813033],[-8.621865,42.813299],[-8.621759,42.813388],[-8.620258,42.814042],[-8.620375,42.814181],[-8.620352,42.814269],[-8.620026,42.814563],[-8.620021,42.814638],[-8.621289,42.814753],[-8.621659,42.814992],[-8.621908,42.815365],[-8.622139,42.815514],[-8.622174,42.815577],[-8.622136,42.816081],[-8.622053,42.816155],[-8.621746,42.816257],[-8.621322,42.816815],[-8.621256,42.817017],[-8.621271,42.81714],[-8.62114,42.817789],[-8.621006,42.818004],[-8.620677,42.818264],[-8.620391,42.818612],[-8.619693,42.819221],[-8.619155,42.819392],[-8.619015,42.819502],[-8.618653,42.819837],[-8.618136,42.82057],[-8.61795,42.820683],[-8.617714,42.82074],[-8.617054,42.820782],[-8.617007,42.820826],[-8.616955,42.821048],[-8.616952,42.821175],[-8.617024,42.821385],[-8.615813,42.821272],[-8.615728,42.821181],[-8.614657,42.821555],[-8.614456,42.821574],[-8.613707,42.82148],[-8.613363,42.821695],[-8.61245,42.822602],[-8.611999,42.822914],[-8.611571,42.823338],[-8.611583,42.823418],[-8.610992,42.824429],[-8.610903,42.824898],[-8.610923,42.825302],[-8.611197,42.826106],[-8.611021,42.82616],[-8.610942,42.826252],[-8.61088,42.826491],[-8.610874,42.826809],[-8.610776,42.826954],[-8.610725,42.827129],[-8.61044,42.827376],[-8.610292,42.82794],[-8.610164,42.828079],[-8.609937,42.828211],[-8.609604,42.82828],[-8.609326,42.828296],[-8.608899,42.828212],[-8.608714,42.828234],[-8.608254,42.828688],[-8.607932,42.828856],[-8.607451,42.828868],[-8.606246,42.829024],[-8.605812,42.829526],[-8.60547,42.830706],[-8.605043,42.831434],[-8.604881,42.831573],[-8.604544,42.831659],[-8.603305,42.832455],[-8.602862,42.832648],[-8.602735,42.832784],[-8.602438,42.83298],[-8.602116,42.833121],[-8.601662,42.833219],[-8.601215,42.833467],[-8.601071,42.8335],[-8.600792,42.833987],[-8.600591,42.834238],[-8.600214,42.834551],[-8.599626,42.835221],[-8.599127,42.835598],[-8.598465,42.835788],[-8.597782,42.836215],[-8.597147,42.83638],[-8.595586,42.836571],[-8.59458,42.836374],[-8.593892,42.836479],[-8.593577,42.836417],[-8.593379,42.836442],[-8.593153,42.83837],[-8.59319,42.83841],[-8.593427,42.838418],[-8.593905,42.838327],[-8.594333,42.838181],[-8.594431,42.838193],[-8.593557,42.838759],[-8.593389,42.838707],[-8.59316,42.83874],[-8.592881,42.838662],[-8.592502,42.838648],[-8.592221,42.838708],[-8.591882,42.838851],[-8.591649,42.838865],[-8.591525,42.838929],[-8.591208,42.838927],[-8.591197,42.839018],[-8.590461,42.838837],[-8.590302,42.838861],[-8.588451,42.839687],[-8.588363,42.839693],[-8.587881,42.839954],[-8.585059,42.841045],[-8.584092,42.841359],[-8.583433,42.841729],[-8.583081,42.841979],[-8.582016,42.843145],[-8.581758,42.843258],[-8.581491,42.843571],[-8.580713,42.844848],[-8.580631,42.845047],[-8.580408,42.846331],[-8.580085,42.848547],[-8.57986,42.848669],[-8.579437,42.849038],[-8.578827,42.849123],[-8.578346,42.849329],[-8.577846,42.849077],[-8.577317,42.848999],[-8.577042,42.849241],[-8.576915,42.849536],[-8.576958,42.85001],[-8.577098,42.850609],[-8.577235,42.850882],[-8.577227,42.851055],[-8.577175,42.85116],[-8.576204,42.851883],[-8.57592,42.851973],[-8.575647,42.852315],[-8.575387,42.852382],[-8.574978,42.852728],[-8.5745,42.852924],[-8.574227,42.852935],[-8.574136,42.852982],[-8.574102,42.853028],[-8.574151,42.853337],[-8.574158,42.85399],[-8.574026,42.854217],[-8.573873,42.854184],[-8.57356,42.853587],[-8.573353,42.853278],[-8.573168,42.853117],[-8.573,42.853176],[-8.572837,42.85358],[-8.572851,42.853849],[-8.573053,42.854203],[-8.572719,42.855864],[-8.573044,42.856218],[-8.573521,42.856403],[-8.574703,42.856463],[-8.574908,42.856494],[-8.575225,42.856636],[-8.575303,42.856707],[-8.575465,42.857133],[-8.575736,42.857495],[-8.576751,42.858579],[-8.577121,42.858863],[-8.577045,42.859234],[-8.57671,42.85968],[-8.576637,42.859858],[-8.576643,42.859927],[-8.576817,42.860049],[-8.576953,42.860239],[-8.577024,42.860425],[-8.577116,42.860978],[-8.577067,42.861331],[-8.577016,42.861418],[-8.576635,42.861721],[-8.576306,42.861909],[-8.575972,42.862249],[-8.575847,42.862525],[-8.575833,42.863029],[-8.574901,42.863154],[-8.574122,42.863448],[-8.574253,42.86374],[-8.574362,42.86384],[-8.574767,42.864084],[-8.575514,42.864671],[-8.576071,42.864982],[-8.575452,42.865453],[-8.575088,42.865969],[-8.57441,42.866109],[-8.573918,42.866102],[-8.57283,42.865769],[-8.572448,42.865607],[-8.572223,42.865807],[-8.572129,42.865836],[-8.571301,42.865828],[-8.571224,42.865778],[-8.5707,42.865249],[-8.570246,42.864933],[-8.569936,42.864593],[-8.56989,42.864491],[-8.569887,42.864207],[-8.570075,42.863777],[-8.570115,42.863066],[-8.57008,42.862799],[-8.569748,42.862163],[-8.56974,42.861991],[-8.569793,42.861873],[-8.569508,42.86172],[-8.569186,42.861868],[-8.568817,42.862135],[-8.568189,42.862422],[-8.567576,42.862373],[-8.567384,42.862412],[-8.567217,42.862341],[-8.567147,42.862359],[-8.566834,42.862579],[-8.566443,42.863066],[-8.565323,42.863548],[-8.565009,42.864072],[-8.564884,42.864196],[-8.562964,42.865742],[-8.563308,42.86598],[-8.563006,42.866235],[-8.562746,42.86678],[-8.562403,42.867174],[-8.562153,42.867578],[-8.562298,42.867646],[-8.561691,42.868078],[-8.56094,42.868521],[-8.556142,42.871743],[-8.554749,42.87223],[-8.554272,42.872503],[-8.552493,42.873841],[-8.552361,42.87388],[-8.551252,42.874851],[-8.550415,42.875397],[-8.549795,42.875612],[-8.549909,42.875692],[-8.549056,42.876032],[-8.548983,42.876093],[-8.546767,42.876886],[-8.546359,42.877122],[-8.546231,42.877289],[-8.545783,42.877389],[-8.545512,42.877815],[-8.54525,42.878461],[-8.545115,42.879087],[-8.545156,42.879833],[-8.544296,42.879956],[-8.54418,42.8802],[-8.5441,42.880276],[-8.543897,42.880284],[-8.543659,42.880599],[-8.54385,42.88095],[-8.5443,42.88135],[-8.5449,42.88105],[-8.5448,42.8806]]},"properties":{"name":"Camino Portugués Central — traza de pintado (simplificada)","source":"Xunta de Galicia (abertos.xunta.gal, dataset 'Ruta del Camino Portugués', CC BY-SA 4.0), tramos oficiales e01-e06, excluidas variantes/complementarios","simplificacion":"Douglas-Peucker, tolerancia 3 m","advertencia":"Esta traza es SOLO para dibujar en el mapa. Su longitud NO es válida para calcular progreso. El cálculo usa lib/traza/traza.geojson.","length_km_aprox":110.133}}]}